NORAD_CAT_ID,OBJECT_NAME,OBJECT_TYPE,EPOCH,MEAN_MOTION,ECCENTRICITY,INCLINATION,RA_OF_ASC_NODE,ARG_OF_PERICENTER,MEAN_ANOMALY,BSTAR,MEAN_MOTION_DOT,MEAN_MOTION_DDOT,TLE_LINE0,TLE_LINE1,TLE_LINE2,SEMIMAJOR_AXIS,PERIOD,APOGEE,PERIGEE,DECAYED
49172.0,STARLINK-3091,PAYLOAD,2022-02-11 12:47:31,15.39547609,0.0003112,69.9963,65.443,274.4294,85.6531,-0.005345,-0.00205395,0.0,0 STARLINK-3091,1 49172U 21082AU  22042.53300777 -.00205395  00000-0 -53450-2 0  9993,2 49172  69.9963  65.4430 0003112 274.4294  85.6531 15.39547609 23673,6825.583000000001,93.534,449.572,445.324,0.0
49172.0,STARLINK-3091,PAYLOAD,2022-02-11 22:00:01,15.37807813,0.0003419,69.9999,64.4002,276.7945,49.5139,-0.018935,-0.00656586,0.0,0 STARLINK-3091,1 49172U 21082AU  22042.91668981 -.00656586  00000-0 -18935-1 0  9999,2 49172  69.9999  64.4002 0003419 276.7945  49.5139 15.37807813 23738,6830.73,93.64,454.931,450.26,0.0
49172.0,STARLINK-3091,PAYLOAD,2022-02-12 12:12:36,15.38261546,0.0003182,69.9952,62.8243,275.1471,84.9346,-0.0055842,-0.00205744,0.0,0 STARLINK-3091,1 49172U 21082AU  22043.50875721 -.00205744  00000-0 -55842-2 0  9992,2 49172  69.9952  62.8243 0003182 275.1471  84.9346 15.38261546 23821,6829.387,93.612,453.425,449.079,0.0
49172.0,STARLINK-3091,PAYLOAD,2022-02-12 22:00:00,15.3640689,0.0003463,69.9999,61.7221,279.0049,179.1913,-0.019904,-0.00659347,0.0,0 STARLINK-3091,1 49172U 21082AU  22043.91667824 -.00659347  00000-0 -19904-1 0  9990,2 49172  69.9999  61.7221 0003463 279.0049 179.1913 15.36406890 23886,6834.882,93.725,459.114,454.38,0.0
49172.0,STARLINK-3091,PAYLOAD,2022-02-13 14:00:01,15.35474288,0.0003263,69.9997,59.9396,278.1435,265.2171,-0.020634,-0.00663018,0.0,0 STARLINK-3091,1 49172U 21082AU  22044.58334491 -.00663018  00000-0 -20634-1 0  9997,2 49172  69.9997  59.9396 0003263 278.1435 265.2171 15.35474288  3676,6837.649,93.782,461.745,457.283,0.0
49172.0,STARLINK-3091,PAYLOAD,2022-02-13 22:00:00,15.35004686,0.0003295,69.9998,59.0494,278.8142,306.2886,-0.020823,-0.00659375,0.0,0 STARLINK-3091,1 49172U 21082AU  22044.91667824 -.00659375  00000-0 -20823-1 0  9994,2 49172  69.9998  59.0494 0003295 278.8142 306.2886 15.35004686 24037,6839.044,93.811,463.162,458.655,0.0
49172.0,STARLINK-3091,PAYLOAD,2022-02-14 14:00:01,15.34071774,0.0003333,69.9997,57.2708,275.1396,31.7639,-0.021576,-0.00662938,0.0,0 STARLINK-3091,1 49172U 21082AU  22045.58334491 -.00662938  00000-0 -21576-1 0  9994,2 49172  69.9997  57.2708 0003333 275.1396  31.7639 15.34071774  3661,6841.816,93.868,465.961,461.401,0.0
49172.0,STARLINK-3091,PAYLOAD,2022-02-14 22:00:00,15.33600155,0.0003441,70.0,56.3827,278.0443,68.9204,-0.021659,-0.00656118,0.0,0 STARLINK-3091,1 49172U 21082AU  22045.91667824 -.00656118  00000-0 -21659-1 0  9995,2 49172  70.0000  56.3827 0003441 278.0443  68.9204 15.33600155  3666,6843.219,93.897,467.43800000000016,462.729,0.0
49172.0,STARLINK-3091,PAYLOAD,2022-02-15 06:00:00,15.33135788,0.0003664,70.0001,55.495,287.5746,98.8881,-0.022175,-0.00661582,0.0,0 STARLINK-3091,1 49172U 21082AU  22046.25001157 -.00661582  00000-0 -22175-1 0  9999,2 49172  70.0001  55.4950 0003664 287.5746  98.8881 15.33135788 24247,6844.6,93.925,468.973,463.957,0.0
49172.0,STARLINK-3091,PAYLOAD,2022-02-15 14:00:01,15.326684900000002,0.0003449,69.9997,54.6079,278.9548,146.446,-0.022483,-0.00660962,0.0,0 STARLINK-3091,1 49172U 21082AU  22046.58334491 -.00660962  00000-0 -22483-1 0  9998,2 49172  69.9997  54.6079 0003449 278.9548 146.4460 15.32668490  3651,6845.991,93.954,470.218,465.495,0.0
49172.0,STARLINK-3091,PAYLOAD,2022-02-15 22:00:01,15.32199877,0.0003434,70.0,53.7216,280.4739,183.3691,-0.022784,-0.00660071,0.0,0 STARLINK-3091,1 49172U 21082AU  22046.91668981 -.00660071  00000-0 -22784-1 0  9994,2 49172  70.0000  53.7216 0003434 280.4739 183.3691 15.32199877  3661,6847.387,93.983,471.604,466.901,0.0
49172.0,STARLINK-3091,PAYLOAD,2022-02-16 14:00:01,15.31266463,0.0003244,69.9997,51.9505,278.7653,260.0869,-0.023538,-0.00662085,0.0,0 STARLINK-3091,1 49172U 21082AU  22047.58334491 -.00662085  00000-0 -23538-1 0  9999,2 49172  69.9997  51.9505 0003244 278.7653 260.0869 15.31266463 24442,6850.17,94.04,474.257,469.812,0.0
49172.0,STARLINK-3091,PAYLOAD,2022-02-16 22:00:00,15.30798973,0.0003337,69.9998,51.066,284.173,291.3752,-0.023905,-0.00662649,0.0,0 STARLINK-3091,1 49172U 21082AU  22047.91667824 -.00662649  00000-0 -23905-1 0  9999,2 49172  69.9998  51.0660 0003337 284.1730 291.3752 15.30798973  3660,6851.564,94.069,475.716,471.143,0.0
49172.0,STARLINK-3091,PAYLOAD,2022-02-17 14:00:01,15.29864954,0.0003291,69.9997,49.2987,276.3312,10.9266,-0.024666,-0.00664083,0.0,0 STARLINK-3091,1 49172U 21082AU  22048.58334491 -.00664083  00000-0 -24666-1 0  9993,2 49172  69.9997  49.2987 0003291 276.3312  10.9266 15.29864954  3664,6854.353,94.126,478.473,473.962,0.0
49172.0,STARLINK-3091,PAYLOAD,2022-02-17 22:00:00,15.29393931,0.0003433,69.9998,48.4163,281.3721,40.9008,-0.024789,-0.00658205,0.0,0 STARLINK-3091,1 49172U 21082AU  22048.91667824 -.00658205  00000-0 -24789-1 0  9994,2 49172  69.9998  48.4163 0003433 281.3721  40.9008 15.29393931 24640,6855.76,94.155,479.978,475.271,0.0
49172.0,STARLINK-3091,PAYLOAD,2022-02-18 14:00:01,15.28461346,0.0003443,69.9997,46.6528,279.3556,111.2625,-0.02566,-0.00661784,0.0,0 STARLINK-3091,1 49172U 21082AU  22049.58334491 -.00661784  00000-0 -25660-1 0  9994,2 49172  69.9997  46.6528 0003443 279.3556 111.2625 15.28461346  3669,6858.5480000000025,94.212,482.775,478.052,0.0
49172.0,STARLINK-3091,PAYLOAD,2022-02-18 22:00:00,15.27991539,0.0003464,69.9998,45.7721,280.7442,143.2069,-0.02588,-0.00658186,0.0,0 STARLINK-3091,1 49172U 21082AU  22049.91667824 -.00658186  00000-0 -25880-1 0  9996,2 49172  69.9998  45.7721 0003464 280.7442 143.2069 15.27991539 24805,6859.954000000002,94.241,484.195,479.443,0.0
49172.0,STARLINK-3091,PAYLOAD,2022-02-19 14:00:01,15.27058186,0.0003314,69.9996,44.0124,278.78,210.1525,-0.026722,-0.00660329,0.0,0 STARLINK-3091,1 49172U 21082AU  22050.58334491 -.00660329  00000-0 -26722-1 0  9990,2 49172  69.9996  44.0124 0003314 278.7800 210.1525 15.27058186  3654,6862.749,94.299,486.888,482.34,0.0
49172.0,STARLINK-3091,PAYLOAD,2022-02-19 22:00:00,15.26591118,0.0003389,69.9999,43.1337,285.2175,235.3651,-0.027153,-0.0066145,0.0,0 STARLINK-3091,1 49172U 21082AU  22050.91667824 -.00661450  00000-0 -27153-1 0  9991,2 49172  69.9999  43.1337 0003389 285.2175 235.3651 15.26591118 24954,6864.149,94.328,488.34,483.68800000000016,0.0
49172.0,STARLINK-3091,PAYLOAD,2022-02-20 14:00:01,15.25656247,0.0003178,69.9997,41.3776,276.136,306.0652,-0.02794,-0.0066158999999999,0.0,0 STARLINK-3091,1 49172U 21082AU  22051.58334491 -.00661590  00000-0 -27940-1 0  9995,2 49172  69.9997  41.3776 0003178 276.1360 306.0652 15.25656247  3644,6866.953,94.386,491.0,486.635,0.0
49172.0,STARLINK-3091,PAYLOAD,2022-02-20 22:00:00,15.25188285,0.0003334,69.9999,40.5007,283.7106,328.4587,-0.028294,-0.00660682,0.0,0 STARLINK-3091,1 49172U 21082AU  22051.91667824 -.00660682  00000-0 -28294-1 0  9995,2 49172  69.9999  40.5007 0003334 283.7106 328.4587 15.25188285  3658,6868.357,94.415,492.512,487.932,0.0
49172.0,STARLINK-3091,PAYLOAD,2022-02-21 06:00:00,15.24718551,0.0003429,70.0,39.6243,287.0697,354.5082,-0.02853,-0.00657135,0.0,0 STARLINK-3091,1 49172U 21082AU  22052.25001157 -.00657135  00000-0 -28530-1 0  9996,2 49172  70.0000  39.6243 0003429 287.0697 354.5082 15.24718551 25155,6869.768,94.444,493.98800000000006,489.277,0.0
49172.0,STARLINK-3091,PAYLOAD,2022-02-21 22:00:00,15.23784183,0.0003489,70.0001,37.8735,284.1017,54.6091,-0.029368,-0.00657746,0.0,0 STARLINK-3091,1 49172U 21082AU  22052.91667824 -.00657746  00000-0 -29368-1 0  9996,2 49172  70.0001  37.8735 0003489 284.1017  54.6091 15.23784183  3654,6872.576,94.502,496.839,492.043,0.0
49172.0,STARLINK-3091,PAYLOAD,2022-02-22 06:00:00,15.23318318,0.0003502,70.0,36.999,285.3221,81.1138,-0.029913,-0.00660507,0.0,0 STARLINK-3091,1 49172U 21082AU  22053.25001157 -.00660507  00000-0 -29913-1 0  9990,2 49172  70.0000  36.9990 0003502 285.3221  81.1138 15.23318318 25319,6873.977,94.53,498.249,493.435,0.0
49172.0,STARLINK-3091,PAYLOAD,2022-02-22 14:00:01,15.22850961,0.000336,69.9999,36.1251,275.6811,117.92,-0.030357,-0.00661003,0.0,0 STARLINK-3091,1 49172U 21082AU  22053.58334491 -.00661003  00000-0 -30357-1 0  9992,2 49172  69.9999  36.1251 0003360 275.6811 117.9200 15.22850961  3648,6875.3830000000025,94.559,499.5580000000001,494.93800000000016,0.0
49172.0,STARLINK-3091,PAYLOAD,2022-02-22 22:00:00,15.22381572,0.0003505,70.0001,35.25199999999999,284.4237,135.7824,-0.030595,-0.00657283,0.0,0 STARLINK-3091,1 49172U 21082AU  22053.91667824 -.00657283  00000-0 -30595-1 0  9997,2 49172  70.0001  35.2520 0003505 284.4237 135.7824 15.22381572  3631,6876.795999999999,94.589,501.072,496.251,0.0
49172.0,STARLINK-3091,PAYLOAD,2022-02-23 14:00:01,15.21447982,0.0003313,69.9998,33.5073,280.2298,191.5029,-0.031579,-0.00659763,0.0,0 STARLINK-3091,1 49172U 21082AU  22054.58334491 -.00659763  00000-0 -31579-1 0  9990,2 49172  69.9998  33.5073 0003313 280.2298 191.5029 15.21447982 25510,6879.609,94.647,503.753,499.195,0.0
49172.0,STARLINK-3091,PAYLOAD,2022-02-23 22:00:00,15.20980122,0.0003425,70.0002,32.636,287.0086,209.6464,-0.031958,-0.00658659,0.0,0 STARLINK-3091,1 49172U 21082AU  22054.91667824 -.00658659  00000-0 -31958-1 0  9990,2 49172  70.0002  32.6360 0003425 287.0086 209.6464 15.20980122  3654,6881.02,94.676,505.242,500.528,0.0
49172.0,STARLINK-3091,PAYLOAD,2022-02-24 14:00:01,15.20045479,0.0003181,69.9998,30.8951,277.7481,267.0703,-0.0329,-0.00659656,0.0,0 STARLINK-3091,1 49172U 21082AU  22055.58334491 -.00659656  00000-0 -32900-1 0  9991,2 49172  69.9998  30.8951 0003181 277.7481 267.0703 15.20045479  3645,6883.84,94.734,507.895,503.516,0.0
